KUIPER-00215            
1 67779U 26030R   26058.16468277  .00028790  00000+0  86985-3 0  9993
2 67779  51.8843 270.0278 0009844  30.3517 329.8037 15.33968898  3473
KUIPER-00218            
1 67780U 26030S   26058.09300829  .00020650  00000+0  61317-3 0  9994
2 67780  51.8834 270.2969 0006419  25.6914 334.4390 15.34740170  3462
KUIPER-00220            
1 67781U 26030T   26058.16241963  .00024868  00000+0  74676-3 0  9993
2 67781  51.8813 270.0063 0008102  27.4577 332.6835 15.34258616  3473
KUIPER-00222            
1 67782U 26030U   26058.17643718  .00026362  00000+0  83171-3 0  9990
2 67782  51.8822 270.0937 0017317  33.2443 326.9626 15.32543683  3472
KUIPER-00223            
1 67783U 26030V   26058.16714958  .00023883  00000+0  72819-3 0  9997
2 67783  51.8834 270.0405 0012176  29.5292 330.6378 15.33761536  3470
KUIPER-00225            
1 67784U 26030W   26058.08691539  .00026122  00000+0  75672-3 0  9997
2 67784  51.8805 270.2551 0003637  16.3127 343.7975 15.35385931  3466
KUIPER-00226            
1 67785U 26030X   26058.18361111  .00009792  00000+0  32786-3 0  9992
2 67785  51.8822 270.1414 0019606  40.9974 319.2480 15.31424506  3477
KUIPER-00259            
1 67786U 26030Y   26058.09453108  .00019438  00000+0  58080-3 0  9994
2 67786  51.8809 270.3028 0007963  20.4933 339.6370 15.34572587  3466
KUIPER-00260            
1 67787U 26030Z   26058.14660005  .00024294  00000+0  69258-3 0  9992
2 67787  51.8791 269.9046 0000838 104.1916 255.9163 15.35933705  3381
KUIPER-00262            
1 67788U 26030AA  26058.14434778  .00028234  00000+0  79499-3 0  9995
2 67788  51.8804 269.8923 0001272 137.9180 222.1904 15.36237137  3476
KUIPER-00266            
1 67789U 26030AB  26058.18660767  .00023172  00000+0  76695-3 0  9990
2 67789  51.8815 270.1585 0022374  40.7727 319.4926 15.30985848  3479
KUIPER-00268            
1 67790U 26030AC  26058.08490417  .00025678  00000+0  74006-3 0  9991
2 67790  51.8839 270.2467 0001827  29.8607 330.2483 15.35560507  3466
