CCSDS_OMM_VERS = 2.0
CREATION_DATE  = 
ORIGINATOR     = 

OBJECT_NAME    = KUIPER-00215
OBJECT_ID      = 2026-030R
CENTER_NAME    = EARTH
REF_FRAME      = TEME
TIME_SYSTEM    = UTC
MEAN_ELEMENT_THEORY = SGP/SGP4

EPOCH          = 2026-02-27T03:57:08.591328
MEAN_MOTION    = 15.33968898
ECCENTRICITY   = .0009844
INCLINATION    = 51.8843
RA_OF_ASC_NODE = 270.0278
ARG_OF_PERICENTER = 30.3517
MEAN_ANOMALY   = 329.8037

EPHEMERIS_TYPE = 0
CLASSIFICATION_TYPE = U
NORAD_CAT_ID   = 67779
ELEMENT_SET_NO = 999
REV_AT_EPOCH   = 347
BSTAR          = .86985E-3
MEAN_MOTION_DOT = .2879E-3
MEAN_MOTION_DDOT = 0

CCSDS_OMM_VERS = 2.0
CREATION_DATE  = 
ORIGINATOR     = 

OBJECT_NAME    = KUIPER-00218
OBJECT_ID      = 2026-030S
CENTER_NAME    = EARTH
REF_FRAME      = TEME
TIME_SYSTEM    = UTC
MEAN_ELEMENT_THEORY = SGP/SGP4

EPOCH          = 2026-02-27T02:13:55.916256
MEAN_MOTION    = 15.34740170
ECCENTRICITY   = .0006419
INCLINATION    = 51.8834
RA_OF_ASC_NODE = 270.2969
ARG_OF_PERICENTER = 25.6914
MEAN_ANOMALY   = 334.4390

EPHEMERIS_TYPE = 0
CLASSIFICATION_TYPE = U
NORAD_CAT_ID   = 67780
ELEMENT_SET_NO = 999
REV_AT_EPOCH   = 346
BSTAR          = .61317E-3
MEAN_MOTION_DOT = .2065E-3
MEAN_MOTION_DDOT = 0

CCSDS_OMM_VERS = 2.0
CREATION_DATE  = 
ORIGINATOR     = 

OBJECT_NAME    = KUIPER-00220
OBJECT_ID      = 2026-030T
CENTER_NAME    = EARTH
REF_FRAME      = TEME
TIME_SYSTEM    = UTC
MEAN_ELEMENT_THEORY = SGP/SGP4

EPOCH          = 2026-02-27T03:53:53.056032
MEAN_MOTION    = 15.34258616
ECCENTRICITY   = .0008102
INCLINATION    = 51.8813
RA_OF_ASC_NODE = 270.0063
ARG_OF_PERICENTER = 27.4577
MEAN_ANOMALY   = 332.6835

EPHEMERIS_TYPE = 0
CLASSIFICATION_TYPE = U
NORAD_CAT_ID   = 67781
ELEMENT_SET_NO = 999
REV_AT_EPOCH   = 347
BSTAR          = .74676E-3
MEAN_MOTION_DOT = .24868E-3
MEAN_MOTION_DDOT = 0

CCSDS_OMM_VERS = 2.0
CREATION_DATE  = 
ORIGINATOR     = 

OBJECT_NAME    = KUIPER-00222
OBJECT_ID      = 2026-030U
CENTER_NAME    = EARTH
REF_FRAME      = TEME
TIME_SYSTEM    = UTC
MEAN_ELEMENT_THEORY = SGP/SGP4

EPOCH          = 2026-02-27T04:14:04.172352
MEAN_MOTION    = 15.32543683
ECCENTRICITY   = .0017317
INCLINATION    = 51.8822
RA_OF_ASC_NODE = 270.0937
ARG_OF_PERICENTER = 33.2443
MEAN_ANOMALY   = 326.9626

EPHEMERIS_TYPE = 0
CLASSIFICATION_TYPE = U
NORAD_CAT_ID   = 67782
ELEMENT_SET_NO = 999
REV_AT_EPOCH   = 347
BSTAR          = .83171E-3
MEAN_MOTION_DOT = .26362E-3
MEAN_MOTION_DDOT = 0

CCSDS_OMM_VERS = 2.0
CREATION_DATE  = 
ORIGINATOR     = 

OBJECT_NAME    = KUIPER-00223
OBJECT_ID      = 2026-030V
CENTER_NAME    = EARTH
REF_FRAME      = TEME
TIME_SYSTEM    = UTC
MEAN_ELEMENT_THEORY = SGP/SGP4

EPOCH          = 2026-02-27T04:00:41.723712
MEAN_MOTION    = 15.33761536
ECCENTRICITY   = .0012176
INCLINATION    = 51.8834
RA_OF_ASC_NODE = 270.0405
ARG_OF_PERICENTER = 29.5292
MEAN_ANOMALY   = 330.6378

EPHEMERIS_TYPE = 0
CLASSIFICATION_TYPE = U
NORAD_CAT_ID   = 67783
ELEMENT_SET_NO = 999
REV_AT_EPOCH   = 347
BSTAR          = .72819E-3
MEAN_MOTION_DOT = .23883E-3
MEAN_MOTION_DDOT = 0

CCSDS_OMM_VERS = 2.0
CREATION_DATE  = 
ORIGINATOR     = 

OBJECT_NAME    = KUIPER-00225
OBJECT_ID      = 2026-030W
CENTER_NAME    = EARTH
REF_FRAME      = TEME
TIME_SYSTEM    = UTC
MEAN_ELEMENT_THEORY = SGP/SGP4

EPOCH          = 2026-02-27T02:05:09.489696
MEAN_MOTION    = 15.35385931
ECCENTRICITY   = .0003637
INCLINATION    = 51.8805
RA_OF_ASC_NODE = 270.2551
ARG_OF_PERICENTER = 16.3127
MEAN_ANOMALY   = 343.7975

EPHEMERIS_TYPE = 0
CLASSIFICATION_TYPE = U
NORAD_CAT_ID   = 67784
ELEMENT_SET_NO = 999
REV_AT_EPOCH   = 346
BSTAR          = .75672E-3
MEAN_MOTION_DOT = .26122E-3
MEAN_MOTION_DDOT = 0

CCSDS_OMM_VERS = 2.0
CREATION_DATE  = 
ORIGINATOR     = 

OBJECT_NAME    = KUIPER-00226
OBJECT_ID      = 2026-030X
CENTER_NAME    = EARTH
REF_FRAME      = TEME
TIME_SYSTEM    = UTC
MEAN_ELEMENT_THEORY = SGP/SGP4

EPOCH          = 2026-02-27T04:24:23.999904
MEAN_MOTION    = 15.31424506
ECCENTRICITY   = .0019606
INCLINATION    = 51.8822
RA_OF_ASC_NODE = 270.1414
ARG_OF_PERICENTER = 40.9974
MEAN_ANOMALY   = 319.2480

EPHEMERIS_TYPE = 0
CLASSIFICATION_TYPE = U
NORAD_CAT_ID   = 67785
ELEMENT_SET_NO = 999
REV_AT_EPOCH   = 347
BSTAR          = .32786E-3
MEAN_MOTION_DOT = .9792E-4
MEAN_MOTION_DDOT = 0

CCSDS_OMM_VERS = 2.0
CREATION_DATE  = 
ORIGINATOR     = 

OBJECT_NAME    = KUIPER-00259
OBJECT_ID      = 2026-030Y
CENTER_NAME    = EARTH
REF_FRAME      = TEME
TIME_SYSTEM    = UTC
MEAN_ELEMENT_THEORY = SGP/SGP4

EPOCH          = 2026-02-27T02:16:07.485312
MEAN_MOTION    = 15.34572587
ECCENTRICITY   = .0007963
INCLINATION    = 51.8809
RA_OF_ASC_NODE = 270.3028
ARG_OF_PERICENTER = 20.4933
MEAN_ANOMALY   = 339.6370

EPHEMERIS_TYPE = 0
CLASSIFICATION_TYPE = U
NORAD_CAT_ID   = 67786
ELEMENT_SET_NO = 999
REV_AT_EPOCH   = 346
BSTAR          = .5808E-3
MEAN_MOTION_DOT = .19438E-3
MEAN_MOTION_DDOT = 0

CCSDS_OMM_VERS = 2.0
CREATION_DATE  = 
ORIGINATOR     = 

OBJECT_NAME    = KUIPER-00260
OBJECT_ID      = 2026-030Z
CENTER_NAME    = EARTH
REF_FRAME      = TEME
TIME_SYSTEM    = UTC
MEAN_ELEMENT_THEORY = SGP/SGP4

EPOCH          = 2026-02-27T03:31:06.244320
MEAN_MOTION    = 15.35933705
ECCENTRICITY   = .0000838
INCLINATION    = 51.8791
RA_OF_ASC_NODE = 269.9046
ARG_OF_PERICENTER = 104.1916
MEAN_ANOMALY   = 255.9163

EPHEMERIS_TYPE = 0
CLASSIFICATION_TYPE = U
NORAD_CAT_ID   = 67787
ELEMENT_SET_NO = 999
REV_AT_EPOCH   = 338
BSTAR          = .69258E-3
MEAN_MOTION_DOT = .24294E-3
MEAN_MOTION_DDOT = 0

CCSDS_OMM_VERS = 2.0
CREATION_DATE  = 
ORIGINATOR     = 

OBJECT_NAME    = KUIPER-00262
OBJECT_ID      = 2026-030AA
CENTER_NAME    = EARTH
REF_FRAME      = TEME
TIME_SYSTEM    = UTC
MEAN_ELEMENT_THEORY = SGP/SGP4

EPOCH          = 2026-02-27T03:27:51.648192
MEAN_MOTION    = 15.36237137
ECCENTRICITY   = .0001272
INCLINATION    = 51.8804
RA_OF_ASC_NODE = 269.8923
ARG_OF_PERICENTER = 137.9180
MEAN_ANOMALY   = 222.1904

EPHEMERIS_TYPE = 0
CLASSIFICATION_TYPE = U
NORAD_CAT_ID   = 67788
ELEMENT_SET_NO = 999
REV_AT_EPOCH   = 347
BSTAR          = .79499E-3
MEAN_MOTION_DOT = .28234E-3
MEAN_MOTION_DDOT = 0

CCSDS_OMM_VERS = 2.0
CREATION_DATE  = 
ORIGINATOR     = 

OBJECT_NAME    = KUIPER-00266
OBJECT_ID      = 2026-030AB
CENTER_NAME    = EARTH
REF_FRAME      = TEME
TIME_SYSTEM    = UTC
MEAN_ELEMENT_THEORY = SGP/SGP4

EPOCH          = 2026-02-27T04:28:42.902688
MEAN_MOTION    = 15.30985848
ECCENTRICITY   = .0022374
INCLINATION    = 51.8815
RA_OF_ASC_NODE = 270.1585
ARG_OF_PERICENTER = 40.7727
MEAN_ANOMALY   = 319.4926

EPHEMERIS_TYPE = 0
CLASSIFICATION_TYPE = U
NORAD_CAT_ID   = 67789
ELEMENT_SET_NO = 999
REV_AT_EPOCH   = 347
BSTAR          = .76695E-3
MEAN_MOTION_DOT = .23172E-3
MEAN_MOTION_DDOT = 0

CCSDS_OMM_VERS = 2.0
CREATION_DATE  = 
ORIGINATOR     = 

OBJECT_NAME    = KUIPER-00268
OBJECT_ID      = 2026-030AC
CENTER_NAME    = EARTH
REF_FRAME      = TEME
TIME_SYSTEM    = UTC
MEAN_ELEMENT_THEORY = SGP/SGP4

EPOCH          = 2026-02-27T02:02:15.720288
MEAN_MOTION    = 15.35560507
ECCENTRICITY   = .0001827
INCLINATION    = 51.8839
RA_OF_ASC_NODE = 270.2467
ARG_OF_PERICENTER = 29.8607
MEAN_ANOMALY   = 330.2483

EPHEMERIS_TYPE = 0
CLASSIFICATION_TYPE = U
NORAD_CAT_ID   = 67790
ELEMENT_SET_NO = 999
REV_AT_EPOCH   = 346
BSTAR          = .74006E-3
MEAN_MOTION_DOT = .25678E-3
MEAN_MOTION_DDOT = 0

